[{"OBJECT_NAME":"STARLINK-5122","OBJECT_ID":"2022-141Y","EPOCH":"2026-03-09T04:33:20.451456","MEAN_MOTION":15.08832639,"ECCENTRICITY":0.00014858,"INCLINATION":53.2185,"RA_OF_ASC_NODE":6.2525,"ARG_OF_PERICENTER":100.9333,"MEAN_ANOMALY":259.1826,"EPHEMERIS_TYPE":0,"CLASSIFICATION_TYPE":"U","NORAD_CAT_ID":54179,"ELEMENT_SET_NO":999,"REV_AT_EPOCH":18578,"BSTAR":-0.00011632371,"MEAN_MOTION_DOT":-2.138e-5,"MEAN_MOTION_DDOT":0},{"OBJECT_NAME":"SL-24 R\/B","OBJECT_ID":"2015-014C","EPOCH":"2026-03-09T13:33:24.155424","MEAN_MOTION":13.7773905,"ECCENTRICITY":0.0610763,"INCLINATION":97.3421,"RA_OF_ASC_NODE":264.7198,"ARG_OF_PERICENTER":166.3876,"MEAN_ANOMALY":195.462,"EPHEMERIS_TYPE":0,"CLASSIFICATION_TYPE":"U","NORAD_CAT_ID":40541,"ELEMENT_SET_NO":999,"REV_AT_EPOCH":55007,"BSTAR":0.00021162,"MEAN_MOTION_DOT":8.42e-6,"MEAN_MOTION_DDOT":0}]
